OBJECT_NAME,OBJECT_ID,EPOCH,MEAN_MOTION,ECCENTRICITY,INCLINATION,RA_OF_ASC_NODE,ARG_OF_PERICENTER,MEAN_ANOMALY,EPHEMERIS_TYPE,CLASSIFICATION_TYPE,NORAD_CAT_ID,ELEMENT_SET_NO,REV_AT_EPOCH,BSTAR,MEAN_MOTION_DOT,MEAN_MOTION_DDOT
QIANFAN-208,2026-153H,2026-07-18T21:30:05.571648,14.25462891,.0008667,88.9926,358.6211,171.9931,188.1402,0,U,69807,999,207,.61583086E-4,.16E-5,0
QIANFAN-209,2026-153J,2026-07-18T21:39:29.589984,14.23086834,.00078007,88.9926,358.6221,168.5549,191.5821,0,U,69808,999,207,.55129157E-4,.139E-5,0
QIANFAN-210,2026-153K,2026-07-18T21:34:18.635520,14.23252921,.00083463,88.9927,358.6217,171.2481,188.8858,0,U,69809,999,207,.49967488E-4,.128E-5,0
QIANFAN-211,2026-153L,2026-07-18T21:33:23.426784,14.23382442,.00079679,88.9927,358.6214,168.2837,191.8542,0,U,69810,999,207,.44805314E-4,.116E-5,0
QIANFAN-212,2026-153M,2026-07-18T04:32:30.888096,14.22682297,.00122001,88.9888,358.7049,152.0967,208.0882,0,U,69811,999,197,-.97540315E+0,-.201872E-1,0
QIANFAN-213,2026-153N,2026-07-17T21:48:21.510720,14.21939575,.00078274,88.9917,358.7338,155.5754,204.5809,0,U,69812,999,193,-.9822754E+0,-.2004805E-1,0
QIANFAN-214,2026-153P,2026-07-18T21:22:39.936864,14.26672627,.00081322,88.9926,358.6203,171.3059,188.8277,0,U,69813,999,207,.1907942E-4,.61E-6,0
QIANFAN-215,2026-153Q,2026-07-18T21:22:34.351104,14.26719068,.00083474,88.9925,358.6201,173.6149,186.5153,0,U,69814,999,207,.46941772E-4,.128E-5,0
QIANFAN-216,2026-153R,2026-07-18T21:22:33.597696,14.26720280,.00083277,88.9926,358.6203,173.5042,186.6261,0,U,69815,999,207,.54187948E-4,.146E-5,0
QIANFAN-217,2026-153S,2026-07-18T21:21:50.411520,14.26768172,.00080183,88.9925,358.6200,170.1424,189.9929,0,U,69816,999,207,.14030773E-4,.49E-6,0
QIANFAN-218,2026-153T,2026-07-18T21:21:13.785696,14.26811354,.0007792,88.9928,358.6205,167.4472,192.6918,0,U,69817,999,207,.45425157E-4,.125E-5,0
CZ-6A R/B,2026-153U,2026-07-18T21:36:48.078144,14.53449625,.00869779,89.0167,358.5402,74.6318,286.4481,0,U,69818,999,211,.32354976E-4,.161E-5,0
STARLINK-37520,2026-154A,2026-07-18T22:00:01.999584,15.80883470,.00011329,53.1577,274.3020,77.3778,236.2755,0,U,69819,999,326,-.17391004E-3,-.34901E-3,0
STARLINK-37553,2026-154B,2026-07-18T22:00:01.999584,15.80901868,.00010364,53.1578,274.2928,89.7686,228.1527,0,U,69820,999,326,-.3725534E-3,-.73702E-3,0
STARLINK-37561,2026-154C,2026-07-18T22:00:01.999584,15.80901562,.00011215,53.1579,274.2840,86.6551,235.5347,0,U,69821,999,326,-.33266816E-3,-.65944E-3,0
STARLINK-37521,2026-154D,2026-07-18T22:00:01.999584,15.80906853,.00010702,53.1579,274.2753,84.6070,241.8560,0,U,69822,999,326,-.41962263E-3,-.82858E-3,0
STARLINK-37628,2026-154E,2026-07-18T22:00:01.999584,15.80899383,.00010664,53.1582,274.2664,82.9927,247.7407,0,U,69823,999,326,-.28140489E-3,-.55948E-3,0
STARLINK-37695,2026-154F,2026-07-18T22:00:01.999584,15.80895456,.00007417,53.1583,274.1849,104.7362,265.5568,0,U,69824,999,326,-.29921833E-3,-.59408E-3,0
STARLINK-37690,2026-154G,2026-07-18T22:00:01.999584,15.80905154,.00011664,53.1583,274.2490,95.2405,244.0303,0,U,69825,999,326,-.32728324E-3,-.64907E-3,0
STARLINK-37710,2026-154H,2026-07-18T22:00:01.999584,15.80906755,.00009656,53.1583,274.2401,94.6503,248.8993,0,U,69826,999,326,-.39678004E-3,-.78423E-3,0
STARLINK-38031,2026-154J,2026-07-18T22:00:01.999584,15.80906120,.0000991,53.1583,274.2310,86.7985,261.0203,0,U,69827,999,326,-.3833958E-3,-.75822E-3,0
STARLINK-38001,2026-154K,2026-07-18T22:00:01.999584,15.80903122,.0001034,53.1584,274.2222,91.9594,260.1336,0,U,69828,999,326,-.36812295E-3,-.72845E-3,0
STARLINK-37622,2026-154L,2026-07-18T22:00:01.999584,15.80907606,.00011958,53.1583,274.2135,88.2855,268.0796,0,U,69829,999,327,-.42135611E-3,-.83198E-3,0
STARLINK-37621,2026-154M,2026-07-18T22:00:01.999584,15.80901887,.00010247,53.1584,274.2046,95.2680,265.3729,0,U,69830,999,327,-.38090605E-3,-.75324E-3,0
STARLINK-37918,2026-154N,2026-07-18T22:00:01.999584,15.80895168,.00011325,53.1583,274.1956,84.7890,280.1240,0,U,69831,999,327,-.30838047E-3,-.61196E-3,0
STARLINK-37887,2026-154P,2026-07-18T22:00:01.999584,15.80902891,.00009344,53.1583,274.1867,79.8592,289.3235,0,U,69832,999,327,-.38113164E-3,-.75371E-3,0
STARLINK-37624,2026-154Q,2026-07-18T22:00:01.999584,15.80906846,.00011419,53.1583,274.1779,86.8014,286.6507,0,U,69833,999,327,-.40443681E-3,-.79912E-3,0
STARLINK-37769,2026-154R,2026-07-18T22:00:01.999584,15.80900419,.00011382,53.1582,274.1689,82.5611,295.1656,0,U,69834,999,327,-.35479265E-3,-.70245E-3,0
STARLINK-37247,2026-154S,2026-07-18T22:00:01.999584,15.80909225,.00010262,53.1581,274.1603,89.9740,292.0174,0,U,69835,999,337,-.39984298E-3,-.79028E-3,0
STARLINK-37569,2026-154T,2026-07-18T22:00:01.999584,15.80904013,.00011238,53.1583,274.1516,94.6925,291.5750,0,U,69836,999,327,-.37562274E-3,-.74306E-3,0
