QIANFAN-208             
1 69807U 26153H   26199.89589782  .00000160  00000+0  61583-4 0  9993
2 69807  88.9926 358.6211 0008667 171.9931 188.1402 14.25462891  2073
QIANFAN-209             
1 69808U 26153J   26199.90242581  .00000139  00000+0  55129-4 0  9994
2 69808  88.9926 358.6221 0007800 168.5549 191.5821 14.23086834  2070
QIANFAN-210             
1 69809U 26153K   26199.89882680  .00000128  00000+0  49967-4 0  9994
2 69809  88.9927 358.6217 0008346 171.2481 188.8858 14.23252921  2070
QIANFAN-211             
1 69810U 26153L   26199.89818781  .00000116  00000+0  44805-4 0  9990
2 69810  88.9927 358.6214 0007967 168.2837 191.8542 14.23382442  2074
QIANFAN-212             
1 69811U 26153M   26199.18924639 -.02018720  00000+0 -97540+0 0  9996
2 69811  88.9888 358.7049 0012200 152.0967 208.0882 14.22682297  1975
QIANFAN-213             
1 69812U 26153N   26198.90858230 -.02004805  00000+0 -98228+0 0  9992
2 69812  88.9917 358.7338 0007827 155.5754 204.5809 14.21939575  1930
QIANFAN-214             
1 69813U 26153P   26199.89074001  .00000061  00000+0  19079-4 0  9996
2 69813  88.9926 358.6203 0008132 171.3059 188.8277 14.26672627  2071
QIANFAN-215             
1 69814U 26153Q   26199.89067536  .00000128  00000+0  46942-4 0  9995
2 69814  88.9925 358.6201 0008347 173.6149 186.5153 14.26719068  2071
QIANFAN-216             
1 69815U 26153R   26199.89066664  .00000146  00000+0  54188-4 0  9998
2 69815  88.9926 358.6203 0008327 173.5042 186.6261 14.26720280  2073
QIANFAN-217             
1 69816U 26153S   26199.89016680  .00000049  00000+0  14031-4 0  9997
2 69816  88.9925 358.6200 0008018 170.1424 189.9929 14.26768172  2073
QIANFAN-218             
1 69817U 26153T   26199.88974289  .00000125  00000+0  45425-4 0  9991
2 69817  88.9928 358.6205 0007792 167.4472 192.6918 14.26811354  2072
CZ-6A R/B               
1 69818U 26153U   26199.90055646  .00000161  00000+0  32355-4 0  9990
2 69818  89.0167 358.5402 0086977  74.6318 286.4481 14.53449625  2118
STARLINK-37520          
1 69819U 26154A   26199.91668981 -.00034901  00000+0 -17391-3 0  9998
2 69819  53.1577 274.3020 0001132  77.3778 236.2755 15.80883470  3262
STARLINK-37553          
1 69820U 26154B   26199.91668981 -.00073702  00000+0 -37255-3 0  9993
2 69820  53.1578 274.2928 0001036  89.7686 228.1527 15.80901868  3268
STARLINK-37561          
1 69821U 26154C   26199.91668981 -.00065944  00000+0 -33267-3 0  9992
2 69821  53.1579 274.2840 0001121  86.6551 235.5347 15.80901562  3268
STARLINK-37521          
1 69822U 26154D   26199.91668981 -.00082858  00000+0 -41962-3 0  9997
2 69822  53.1579 274.2753 0001070  84.6070 241.8560 15.80906853  3264
STARLINK-37628          
1 69823U 26154E   26199.91668981 -.00055948  00000+0 -28140-3 0  9991
2 69823  53.1582 274.2664 0001066  82.9927 247.7407 15.80899383  3261
STARLINK-37695          
1 69824U 26154F   26199.91668981 -.00059408  00000+0 -29922-3 0  9996
2 69824  53.1583 274.1849 0000741 104.7362 265.5568 15.80895456  3265
STARLINK-37690          
1 69825U 26154G   26199.91668981 -.00064907  00000+0 -32728-3 0  9995
2 69825  53.1583 274.2490 0001166  95.2405 244.0303 15.80905154  3269
STARLINK-37710          
1 69826U 26154H   26199.91668981 -.00078423  00000+0 -39678-3 0  9995
2 69826  53.1583 274.2401 0000965  94.6503 248.8993 15.80906755  3265
STARLINK-38031          
1 69827U 26154J   26199.91668981 -.00075822  00000+0 -38340-3 0  9991
2 69827  53.1583 274.2310 0000991  86.7985 261.0203 15.80906120  3267
STARLINK-38001          
1 69828U 26154K   26199.91668981 -.00072845  00000+0 -36812-3 0  9996
2 69828  53.1584 274.2222 0001034  91.9594 260.1336 15.80903122  3260
STARLINK-37622          
1 69829U 26154L   26199.91668981 -.00083198  00000+0 -42136-3 0  9996
2 69829  53.1583 274.2135 0001195  88.2855 268.0796 15.80907606  3279
STARLINK-37621          
1 69830U 26154M   26199.91668981 -.00075324  00000+0 -38091-3 0  9995
2 69830  53.1584 274.2046 0001024  95.2680 265.3729 15.80901887  3279
STARLINK-37918          
1 69831U 26154N   26199.91668981 -.00061196  00000+0 -30838-3 0  9999
2 69831  53.1583 274.1956 0001132  84.7890 280.1240 15.80895168  3271
STARLINK-37887          
1 69832U 26154P   26199.91668981 -.00075371  00000+0 -38113-3 0  9994
2 69832  53.1583 274.1867 0000934  79.8592 289.3235 15.80902891  3273
STARLINK-37624          
1 69833U 26154Q   26199.91668981 -.00079912  00000+0 -40444-3 0  9990
2 69833  53.1583 274.1779 0001141  86.8014 286.6507 15.80906846  3270
STARLINK-37769          
1 69834U 26154R   26199.91668981 -.00070245  00000+0 -35479-3 0  9993
2 69834  53.1582 274.1689 0001138  82.5611 295.1656 15.80900419  3272
STARLINK-37247          
1 69835U 26154S   26199.91668981 -.00079028  00000+0 -39984-3 0  9997
2 69835  53.1581 274.1603 0001026  89.9740 292.0174 15.80909225  3374
STARLINK-37569          
1 69836U 26154T   26199.91668981 -.00074306  00000+0 -37562-3 0  9992
2 69836  53.1583 274.1516 0001123  94.6925 291.5750 15.80904013  3279
